{
  "type": "FeatureCollection",
  "crs": {"type": "name", "properties": {"name": "urn:ogc:def:crs:OGC:1.3:CRS84"}},
  "features": [
    {"type": "Feature", "geometry": {"type": "Point", "coordinates": [-87.6282, 55.965999]}, "properties": {"core_id": "FS-01", "campaign": "FS_2025_mineral", "soil_type": "mineral/forest", "year": 2025, "x_3978": 449599.994753, "y_3978": 792274.128004, "n_segments": 3, "core_cm": 30, "bd_min": 1.435, "bd_max": 1.7629, "om_max_pct": 7.3, "soc_shal": 8.229, "shal_cm": 14.5, "soc_30cm": 14.263, "soc30_lb": 0, "depth30_cm": 30, "peat_cm": 0, "peat_sta": "no_peat", "n_flagged": 3, "fs_dist_km": 5.647}},
    {"type": "Feature", "geometry": {"type": "Point", "coordinates": [-87.62825, 55.992611]}, "properties": {"core_id": "FS-02", "campaign": "FS_2025_mineral", "soil_type": "mineral/forest", "year": 2025, "x_3978": 449261.584136, "y_3978": 795154.542579, "n_segments": 3, "core_cm": 30, "bd_min": 0.7467, "bd_max": 1.497, "om_max_pct": 9.4, "soc_shal": 5.163, "shal_cm": 14.5, "soc_30cm": 8.382, "soc30_lb": 0, "depth30_cm": 30, "peat_cm": 0, "peat_sta": "no_peat", "n_flagged": 3, "fs_dist_km": 2.697}},
    {"type": "Feature", "geometry": {"type": "Point", "coordinates": [-87.87181, 56.128917]}, "properties": {"core_id": "FS-03", "campaign": "FS_2025_mineral", "soil_type": "mineral/forest", "year": 2025, "x_3978": 432820.413365, "y_3978": 808221.7397, "n_segments": 3, "core_cm": 30, "bd_min": 2.0633, "bd_max": 2.1814, "om_max_pct": 1.8, "soc_shal": 2.554, "shal_cm": 14.5, "soc_30cm": 4.222, "soc30_lb": 0, "depth30_cm": 30, "peat_cm": 0, "peat_sta": "no_peat", "n_flagged": 3, "fs_dist_km": 19.36}},
    {"type": "Feature", "geometry": {"type": "Point", "coordinates": [-87.79556, 56.074278]}, "properties": {"core_id": "FS-04", "campaign": "FS_2025_mineral", "soil_type": "mineral/forest", "year": 2025, "x_3978": 438103.419413, "y_3978": 802828.350943, "n_segments": 3, "core_cm": 30, "bd_min": 0.9969, "bd_max": 1.9747, "om_max_pct": 5.5, "soc_shal": 6.929, "shal_cm": 14.5, "soc_30cm": 8.759, "soc30_lb": 0, "depth30_cm": 30, "peat_cm": 0, "peat_sta": "no_peat", "n_flagged": 3, "fs_dist_km": 11.939}},
    {"type": "Feature", "geometry": {"type": "Point", "coordinates": [-87.75622, 56.079389]}, "properties": {"core_id": "FS-05", "campaign": "FS_2025_mineral", "soil_type": "mineral/forest", "year": 2025, "x_3978": 440422.084679, "y_3978": 803653.338231, "n_segments": 3, "core_cm": 30, "bd_min": 0.2795, "bd_max": 2.0365, "om_max_pct": 15.6, "soc_shal": 3.412, "shal_cm": 14.5, "soc_30cm": 6.105, "soc30_lb": 0, "depth30_cm": 30, "peat_cm": 0, "peat_sta": "no_peat", "n_flagged": 3, "fs_dist_km": 10.337}},
    {"type": "Feature", "geometry": {"type": "Point", "coordinates": [-87.67978, 56.098575]}, "properties": {"core_id": "PM-01-A", "campaign": "PM_2024_peat", "soil_type": "organic/peat", "year": 2024, "x_3978": 444809.157821, "y_3978": 806262.028486, "n_segments": 1, "core_cm": 14.5, "bd_min": 0.0929, "bd_max": 0.0929, "om_max_pct": 39.1, "soc_shal": 3.058, "shal_cm": 14.5, "soc_30cm": 3.058, "soc30_lb": 1, "depth30_cm": 14.5, "peat_cm": 14.5, "peat_sta": "still_peat", "n_flagged": 1, "fs_dist_km": 9.551}},
    {"type": "Feature", "geometry": {"type": "Point", "coordinates": [-87.65064, 56.0996361]}, "properties": {"core_id": "PM-02-A", "campaign": "PM_2024_peat", "soil_type": "organic/peat", "year": 2024, "x_3978": 446558.634131, "y_3978": 806581.054702, "n_segments": 2, "core_cm": 20.7, "bd_min": 0.0827, "bd_max": 0.2662, "om_max_pct": 39.1, "soc_shal": 2.722, "shal_cm": 14.5, "soc_30cm": 3.083, "soc30_lb": 1, "depth30_cm": 20.7, "peat_cm": 15.2, "peat_sta": "contact_observed", "n_flagged": 2, "fs_dist_km": 9.285}},
    {"type": "Feature", "geometry": {"type": "Point", "coordinates": [-87.67839, 56.1103556]}, "properties": {"core_id": "PM-03-A", "campaign": "PM_2024_peat", "soil_type": "organic/peat", "year": 2024, "x_3978": 444745.826705, "y_3978": 807546.795911, "n_segments": 4, "core_cm": 30.73, "bd_min": 0.0501, "bd_max": 0.2287, "om_max_pct": 73.1, "soc_shal": 3.468, "shal_cm": 14.5, "soc_30cm": 10.017, "soc30_lb": 0, "depth30_cm": 30, "peat_cm": 25.23, "peat_sta": "contact_observed", "n_flagged": 4, "fs_dist_km": 10.784}}
  ]
}
