{
  "type": "FeatureCollection",
  "crs": {"type": "name", "properties": {"name": "urn:ogc:def:crs:OGC:1.3:CRS84"}},
  "features": [
    {"type": "Feature", "geometry": {"type": "Point", "coordinates": [-87.6282, 55.965999]}, "properties": {"sample_id": "FS-01-1", "core_id": "FS-01", "campaign": "FS_2025_mineral", "year": 2025, "seg_index": 1, "x_3978": 449599.994753, "y_3978": 792274.128004, "top_cm": 0, "bot_cm": 10, "thick_cm": 10, "bd_gcm3": 1.762905, "om_pct": 5.4, "soc_pct": 3, "cdens_gcm3": 0.05288714, "ocd_supp": 0.05288714, "ocd_ok": 1, "lon_fixed": 1, "qc_flags": "LON_SIGN_REPAIRED;SEGMENT_INDEX_ABSENT", "qc_n": 2}},
    {"type": "Feature", "geometry": {"type": "Point", "coordinates": [-87.6282, 55.965999]}, "properties": {"sample_id": "FS-01-2", "core_id": "FS-01", "campaign": "FS_2025_mineral", "year": 2025, "seg_index": 2, "x_3978": 449599.994753, "y_3978": 792274.128004, "top_cm": 10, "bot_cm": 20, "thick_cm": 10, "bd_gcm3": 1.593866, "om_pct": 7.3, "soc_pct": 4.1, "cdens_gcm3": 0.06534851, "ocd_supp": 0.06534851, "ocd_ok": 1, "lon_fixed": 1, "qc_flags": "LON_SIGN_REPAIRED", "qc_n": 1}},
    {"type": "Feature", "geometry": {"type": "Point", "coordinates": [-87.6282, 55.965999]}, "properties": {"sample_id": "FS-01-3", "core_id": "FS-01", "campaign": "FS_2025_mineral", "year": 2025, "seg_index": 3, "x_3978": 449599.994753, "y_3978": 792274.128004, "top_cm": 20, "bot_cm": 30, "thick_cm": 10, "bd_gcm3": 1.434964, "om_pct": 3, "soc_pct": 1.7, "cdens_gcm3": 0.0243944, "ocd_supp": 0.0243944, "ocd_ok": 1, "lon_fixed": 1, "qc_flags": "LON_SIGN_REPAIRED", "qc_n": 1}},
    {"type": "Feature", "geometry": {"type": "Point", "coordinates": [-87.62825, 55.992611]}, "properties": {"sample_id": "FS-02-1", "core_id": "FS-02", "campaign": "FS_2025_mineral", "year": 2025, "seg_index": 1, "x_3978": 449261.584136, "y_3978": 795154.542579, "top_cm": 0, "bot_cm": 10, "thick_cm": 10, "bd_gcm3": 0.746666, "om_pct": 9.4, "soc_pct": 5.2, "cdens_gcm3": 0.03882662, "ocd_supp": 0.03882662, "ocd_ok": 1, "lon_fixed": 1, "qc_flags": "LON_SIGN_REPAIRED", "qc_n": 1}},
    {"type": "Feature", "geometry": {"type": "Point", "coordinates": [-87.62825, 55.992611]}, "properties": {"sample_id": "FS-02-2", "core_id": "FS-02", "campaign": "FS_2025_mineral", "year": 2025, "seg_index": 2, "x_3978": 449261.584136, "y_3978": 795154.542579, "top_cm": 10, "bot_cm": 20, "thick_cm": 10, "bd_gcm3": 1.497014, "om_pct": 3.5, "soc_pct": 1.9, "cdens_gcm3": 0.02844327, "ocd_supp": 0.02844327, "ocd_ok": 1, "lon_fixed": 1, "qc_flags": "LON_SIGN_REPAIRED", "qc_n": 1}},
    {"type": "Feature", "geometry": {"type": "Point", "coordinates": [-87.62825, 55.992611]}, "properties": {"sample_id": "FS-02-3", "core_id": "FS-02", "campaign": "FS_2025_mineral", "year": 2025, "seg_index": 3, "x_3978": 449261.584136, "y_3978": 795154.542579, "top_cm": 20, "bot_cm": 30, "thick_cm": 10, "bd_gcm3": 1.103048, "om_pct": 2.7, "soc_pct": 1.5, "cdens_gcm3": 0.01654573, "ocd_supp": 0.01654573, "ocd_ok": 1, "lon_fixed": 1, "qc_flags": "LON_SIGN_REPAIRED", "qc_n": 1}},
    {"type": "Feature", "geometry": {"type": "Point", "coordinates": [-87.87181, 56.128917]}, "properties": {"sample_id": "FS-03-1", "core_id": "FS-03", "campaign": "FS_2025_mineral", "year": 2025, "seg_index": 1, "x_3978": 432820.413365, "y_3978": 808221.7397, "top_cm": 0, "bot_cm": 10, "thick_cm": 10, "bd_gcm3": 2.063282, "om_pct": 1.8, "soc_pct": 1, "cdens_gcm3": 0.02063282, "ocd_supp": 0.02063282, "ocd_ok": 1, "lon_fixed": 1, "qc_flags": "BD_ABOVE_MAX;LON_SIGN_REPAIRED", "qc_n": 2}},
    {"type": "Feature", "geometry": {"type": "Point", "coordinates": [-87.87181, 56.128917]}, "properties": {"sample_id": "FS-03-2", "core_id": "FS-03", "campaign": "FS_2025_mineral", "year": 2025, "seg_index": 2, "x_3978": 432820.413365, "y_3978": 808221.7397, "top_cm": 10, "bot_cm": 20, "thick_cm": 10, "bd_gcm3": 2.181432, "om_pct": 0.9, "soc_pct": 0.5, "cdens_gcm3": 0.01090716, "ocd_supp": 0.01090716, "ocd_ok": 1, "lon_fixed": 1, "qc_flags": "BD_ABOVE_MAX;LON_SIGN_REPAIRED", "qc_n": 2}},
    {"type": "Feature", "geometry": {"type": "Point", "coordinates": [-87.87181, 56.128917]}, "properties": {"sample_id": "FS-03-3", "core_id": "FS-03", "campaign": "FS_2025_mineral", "year": 2025, "seg_index": 3, "x_3978": 432820.413365, "y_3978": 808221.7397, "top_cm": 20, "bot_cm": 30, "thick_cm": 10, "bd_gcm3": 2.13661, "om_pct": 0.8, "soc_pct": 0.5, "cdens_gcm3": 0.01068305, "ocd_supp": 0.01068305, "ocd_ok": 1, "lon_fixed": 1, "qc_flags": "BD_ABOVE_MAX;LON_SIGN_REPAIRED", "qc_n": 2}},
    {"type": "Feature", "geometry": {"type": "Point", "coordinates": [-87.79556, 56.074278]}, "properties": {"sample_id": "FS-04-1", "core_id": "FS-04", "campaign": "FS_2025_mineral", "year": 2025, "seg_index": 1, "x_3978": 438103.419413, "y_3978": 802828.350943, "top_cm": 0, "bot_cm": 10, "thick_cm": 10, "bd_gcm3": 1.974657, "om_pct": 5.5, "soc_pct": 3.1, "cdens_gcm3": 0.06121437, "ocd_supp": 0.06121437, "ocd_ok": 1, "lon_fixed": 1, "qc_flags": "LON_SIGN_REPAIRED", "qc_n": 1}},
    {"type": "Feature", "geometry": {"type": "Point", "coordinates": [-87.79556, 56.074278]}, "properties": {"sample_id": "FS-04-2", "core_id": "FS-04", "campaign": "FS_2025_mineral", "year": 2025, "seg_index": 2, "x_3978": 438103.419413, "y_3978": 802828.350943, "top_cm": 10, "bot_cm": 20, "thick_cm": 10, "bd_gcm3": 0.996859, "om_pct": 3.2, "soc_pct": 1.8, "cdens_gcm3": 0.01794347, "ocd_supp": 0.01794347, "ocd_ok": 1, "lon_fixed": 1, "qc_flags": "LON_SIGN_REPAIRED", "qc_n": 1}},
    {"type": "Feature", "geometry": {"type": "Point", "coordinates": [-87.79556, 56.074278]}, "properties": {"sample_id": "FS-04-3", "core_id": "FS-04", "campaign": "FS_2025_mineral", "year": 2025, "seg_index": 3, "x_3978": 438103.419413, "y_3978": 802828.350943, "top_cm": 20, "bot_cm": 30, "thick_cm": 10, "bd_gcm3": 1.053735, "om_pct": 1.5, "soc_pct": 0.8, "cdens_gcm3": 0.00842988, "ocd_supp": 0.00842988, "ocd_ok": 1, "lon_fixed": 1, "qc_flags": "LON_SIGN_REPAIRED", "qc_n": 1}},
    {"type": "Feature", "geometry": {"type": "Point", "coordinates": [-87.75622, 56.079389]}, "properties": {"sample_id": "FS-05-1", "core_id": "FS-05", "campaign": "FS_2025_mineral", "year": 2025, "seg_index": 1, "x_3978": 440422.084679, "y_3978": 803653.338231, "top_cm": 0, "bot_cm": 10, "thick_cm": 10, "bd_gcm3": 0.279483, "om_pct": 15.6, "soc_pct": 8.6, "cdens_gcm3": 0.02403554, "ocd_supp": 0.02403554, "ocd_ok": 1, "lon_fixed": 1, "qc_flags": "LON_SIGN_REPAIRED", "qc_n": 1}},
    {"type": "Feature", "geometry": {"type": "Point", "coordinates": [-87.75622, 56.079389]}, "properties": {"sample_id": "FS-05-2", "core_id": "FS-05", "campaign": "FS_2025_mineral", "year": 2025, "seg_index": 2, "x_3978": 440422.084679, "y_3978": 803653.338231, "top_cm": 10, "bot_cm": 20, "thick_cm": 10, "bd_gcm3": 2.03652, "om_pct": 2.1, "soc_pct": 1.1, "cdens_gcm3": 0.02240172, "ocd_supp": 0.02240172, "ocd_ok": 1, "lon_fixed": 1, "qc_flags": "BD_ABOVE_MAX;LON_SIGN_REPAIRED", "qc_n": 2}},
    {"type": "Feature", "geometry": {"type": "Point", "coordinates": [-87.75622, 56.079389]}, "properties": {"sample_id": "FS-05-3", "core_id": "FS-05", "campaign": "FS_2025_mineral", "year": 2025, "seg_index": 3, "x_3978": 440422.084679, "y_3978": 803653.338231, "top_cm": 20, "bot_cm": 30, "thick_cm": 10, "bd_gcm3": 1.624137, "om_pct": 1.6, "soc_pct": 0.9, "cdens_gcm3": 0.01461723, "ocd_supp": 0.01461723, "ocd_ok": 1, "lon_fixed": 1, "qc_flags": "LON_SIGN_REPAIRED", "qc_n": 1}},
    {"type": "Feature", "geometry": {"type": "Point", "coordinates": [-87.67978, 56.098575]}, "properties": {"sample_id": "PM-01-A", "core_id": "PM-01-A", "campaign": "PM_2024_peat", "year": 2024, "seg_index": 1, "x_3978": 444809.157821, "y_3978": 806262.028486, "top_cm": 0, "bot_cm": 14.5, "thick_cm": 14.5, "bd_gcm3": 0.0929, "om_pct": 39.1, "soc_pct": 22.7, "cdens_gcm3": 0.0210883, "ocd_supp": 0.0210883, "ocd_ok": 1, "lon_fixed": 1, "qc_flags": "DUPLICATE_LAB_VALUES;LON_SIGN_REPAIRED;SINGLE_SEGMENT_CORE", "qc_n": 3}},
    {"type": "Feature", "geometry": {"type": "Point", "coordinates": [-87.65064, 56.0996361]}, "properties": {"sample_id": "PM-02-A-1", "core_id": "PM-02-A", "campaign": "PM_2024_peat", "year": 2024, "seg_index": 1, "x_3978": 446558.634131, "y_3978": 806581.054702, "top_cm": 0, "bot_cm": 15.2, "thick_cm": 15.2, "bd_gcm3": 0.0827, "om_pct": 39.1, "soc_pct": 22.7, "cdens_gcm3": 0.0187729, "ocd_supp": 0.0187729, "ocd_ok": 1, "lon_fixed": 1, "qc_flags": "DUPLICATE_LAB_VALUES;LON_SIGN_REPAIRED", "qc_n": 2}},
    {"type": "Feature", "geometry": {"type": "Point", "coordinates": [-87.65064, 56.0996361]}, "properties": {"sample_id": "PM-02-A-2", "core_id": "PM-02-A", "campaign": "PM_2024_peat", "year": 2024, "seg_index": 2, "x_3978": 446558.634131, "y_3978": 806581.054702, "top_cm": 15.2, "bot_cm": 20.7, "thick_cm": 5.5, "bd_gcm3": 0.2662, "om_pct": 2.71, "soc_pct": 1.57, "cdens_gcm3": 0.00417934, "ocd_supp": 0.00417934, "ocd_ok": 1, "lon_fixed": 1, "qc_flags": "LON_SIGN_REPAIRED", "qc_n": 1}},
    {"type": "Feature", "geometry": {"type": "Point", "coordinates": [-87.67839, 56.1103556]}, "properties": {"sample_id": "PM-03-A-1", "core_id": "PM-03-A", "campaign": "PM_2024_peat", "year": 2024, "seg_index": 1, "x_3978": 444745.826705, "y_3978": 807546.795911, "top_cm": 0, "bot_cm": 8.625, "thick_cm": 8.625, "bd_gcm3": 0.0501, "om_pct": 62.9, "soc_pct": 36.5, "cdens_gcm3": 0.0182865, "ocd_supp": 0.0182865, "ocd_ok": 1, "lon_fixed": 1, "qc_flags": "LON_SIGN_REPAIRED", "qc_n": 1}},
    {"type": "Feature", "geometry": {"type": "Point", "coordinates": [-87.67839, 56.1103556]}, "properties": {"sample_id": "PM-03-A-2", "core_id": "PM-03-A", "campaign": "PM_2024_peat", "year": 2024, "seg_index": 2, "x_3978": 444745.826705, "y_3978": 807546.795911, "top_cm": 8.625, "bot_cm": 17.375, "thick_cm": 8.75, "bd_gcm3": 0.0759, "om_pct": 73.1, "soc_pct": 42.4, "cdens_gcm3": 0.0321816, "ocd_supp": 0.0321816, "ocd_ok": 1, "lon_fixed": 1, "qc_flags": "LON_SIGN_REPAIRED", "qc_n": 1}},
    {"type": "Feature", "geometry": {"type": "Point", "coordinates": [-87.67839, 56.1103556]}, "properties": {"sample_id": "PM-03-A-3", "core_id": "PM-03-A", "campaign": "PM_2024_peat", "year": 2024, "seg_index": 3, "x_3978": 444745.826705, "y_3978": 807546.795911, "top_cm": 17.375, "bot_cm": 25.225, "thick_cm": 7.85, "bd_gcm3": 0.1459, "om_pct": 67.1, "soc_pct": 38.9, "cdens_gcm3": 0.0567551, "ocd_supp": 0.0567551, "ocd_ok": 1, "lon_fixed": 1, "qc_flags": "LON_SIGN_REPAIRED", "qc_n": 1}},
    {"type": "Feature", "geometry": {"type": "Point", "coordinates": [-87.67839, 56.1103556]}, "properties": {"sample_id": "PM-03-A-4", "core_id": "PM-03-A", "campaign": "PM_2024_peat", "year": 2024, "seg_index": 4, "x_3978": 444745.826705, "y_3978": 807546.795911, "top_cm": 25.225, "bot_cm": 30.725, "thick_cm": 5.5, "bd_gcm3": 0.2287, "om_pct": 18.4, "soc_pct": 10.7, "cdens_gcm3": 0.0244709, "ocd_supp": 0.0244709, "ocd_ok": 1, "lon_fixed": 1, "qc_flags": "LON_SIGN_REPAIRED", "qc_n": 1}}
  ]
}
