{
  "type": "FeatureCollection",
  "name": "fort_severn_aoi",
  "crs": { "type": "name", "properties": { "name": "urn:ogc:def:crs:OGC:1.3:CRS84" } },
  "features": [
    {
      "type": "Feature",
      "properties": { "name": "Fort Severn study area", "source": "supplied by practitioner, coast-following" },
      "geometry": {
        "type": "Polygon",
        "coordinates": [
          [
            [-87.2621017, 55.9662738],
            [-87.4979217, 55.6311017],
            [-88.2323325, 55.9209957],
            [-88.9633745, 56.3191241],
            [-88.8858459, 56.4607868],
            [-88.3603042, 56.5908558],
            [-87.8819265, 56.4886964],
            [-87.6629508, 56.3003758],
            [-87.5551473, 56.1505492],
            [-87.4170242, 56.04344],
            [-87.3530159, 56.0020198],
            [-87.2621017, 55.9662738]
          ]
        ]
      }
    }
  ]
}
