{
  "type": "FeatureCollection",
  "name": "hudson_james_bay_lowlands",
  "crs": { "type": "name", "properties": { "name": "urn:ogc:def:crs:OGC:1.3:CRS84" } },
  "features": [
    {
      "type": "Feature",
      "properties": {
        "name": "Hudson and James Bay Lowlands",
        "source": "supplied by practitioner; matches the extent of Li et al. 2025",
        "note": "Regional boundary for the external-comparison statistics. Unlike the Li et al. raster it clips by REGION, not by peat presence, so mineral ground inside the lowlands is included -- which is the point, since that is where the community cores fill the gap."
      },
      "geometry": {
        "type": "Polygon",
        "coordinates": [
          [
            [-91.923566, 57.3164055],
            [-94.0414759, 55.2248908],
            [-87.8787883, 53.7732528],
            [-85.8285791, 52.5516048],
            [-84.2586075, 51.229198],
            [-79.9940238, 48.9643624],
            [-78.7991289, 48.9298541],
            [-78.7269035, 51.3503613],
            [-79.1447503, 51.6940408],
            [-79.5753201, 51.7797396],
            [-79.9125951, 51.3738669],
            [-80.234867, 51.4651271],
            [-81.1362313, 52.2894655],
            [-80.4045204, 52.6576032],
            [-80.6689914, 53.1767188],
            [-81.9136361, 53.3790267],
            [-81.8877586, 53.976433],
            [-82.1322349, 54.1859268],
            [-82.1592457, 55.2368195],
            [-83.1146955, 55.3681821],
            [-84.838985, 55.3676383],
            [-85.5610525, 55.7794071],
            [-87.191863, 56.0478705],
            [-88.2266573, 56.7877996],
            [-89.2268759, 57.1679378],
            [-90.8624328, 57.4489786],
            [-91.4530754, 57.402863],
            [-91.923566, 57.3164055]
          ]
        ]
      }
    }
  ]
}
