{
  "type": "FeatureCollection",
  "crs": {"type": "name", "properties": {"name": "urn:ogc:def:crs:OGC:1.3:CRS84"}},
  "features": [
    {"type": "Feature", "geometry": {"type": "Point", "coordinates": [-87.6282, 55.965999]}, "properties": {"core_id": "FS-01", "campaign": "FS_2025_mineral", "year": 2025, "n_segments": 3, "core_length_cm": 30, "bd_min_gcm3": 1.434964496, "bd_max_gcm3": 1.762904698, "om_max_pct": 7.3, "n_flagged_segs": 3, "dist_from_fort_severn_km": 5.64661742527, "stock_common_kgm2": 8.2293969747, "common_window_cm": 14.5, "stock_0_30_kgm2": 14.2630045832, "stock_0_30_is_lower_bound": false, "depth_covered_0_30_cm": 30}},
    {"type": "Feature", "geometry": {"type": "Point", "coordinates": [-87.62825, 55.992611]}, "properties": {"core_id": "FS-02", "campaign": "FS_2025_mineral", "year": 2025, "n_segments": 3, "core_length_cm": 30, "bd_min_gcm3": 0.746665791, "bd_max_gcm3": 1.49701405, "om_max_pct": 9.4, "n_flagged_segs": 3, "dist_from_fort_severn_km": 2.6969163768, "stock_common_kgm2": 5.16260912595, "common_window_cm": 14.5, "stock_0_30_kgm2": 8.3815614382, "stock_0_30_is_lower_bound": false, "depth_covered_0_30_cm": 30}},
    {"type": "Feature", "geometry": {"type": "Point", "coordinates": [-87.87181, 56.128917]}, "properties": {"core_id": "FS-03", "campaign": "FS_2025_mineral", "year": 2025, "n_segments": 3, "core_length_cm": 30, "bd_min_gcm3": 2.063281932, "bd_max_gcm3": 2.181432451, "om_max_pct": 1.8, "n_flagged_segs": 3, "dist_from_fort_severn_km": 19.3600780308, "stock_common_kgm2": 2.55410423347, "common_window_cm": 14.5, "stock_0_30_kgm2": 4.2223031185, "stock_0_30_is_lower_bound": false, "depth_covered_0_30_cm": 30}},
    {"type": "Feature", "geometry": {"type": "Point", "coordinates": [-87.79556, 56.074278]}, "properties": {"core_id": "FS-04", "campaign": "FS_2025_mineral", "year": 2025, "n_segments": 3, "core_length_cm": 30, "bd_min_gcm3": 0.996859459, "bd_max_gcm3": 1.974657034, "om_max_pct": 5.5, "n_flagged_segs": 3, "dist_from_fort_severn_km": 11.9391713761, "stock_common_kgm2": 6.92889296719, "common_window_cm": 14.5, "stock_0_30_kgm2": 8.7587719396, "stock_0_30_is_lower_bound": false, "depth_covered_0_30_cm": 30}},
    {"type": "Feature", "geometry": {"type": "Point", "coordinates": [-87.75622, 56.079389]}, "properties": {"core_id": "FS-05", "campaign": "FS_2025_mineral", "year": 2025, "n_segments": 3, "core_length_cm": 30, "bd_min_gcm3": 0.279483076, "bd_max_gcm3": 2.036520107, "om_max_pct": 15.6, "n_flagged_segs": 3, "dist_from_fort_severn_km": 10.3374348752, "stock_common_kgm2": 3.41163190656, "common_window_cm": 14.5, "stock_0_30_kgm2": 6.105449784, "stock_0_30_is_lower_bound": false, "depth_covered_0_30_cm": 30}},
    {"type": "Feature", "geometry": {"type": "Point", "coordinates": [-87.67978, 56.098575]}, "properties": {"core_id": "PM-01-A", "campaign": "PM_2024_peat", "year": 2024, "n_segments": 1, "core_length_cm": 14.5, "bd_min_gcm3": 0.0929, "bd_max_gcm3": 0.0929, "om_max_pct": 39.1, "n_flagged_segs": 1, "dist_from_fort_severn_km": 9.55051655587, "stock_common_kgm2": 3.0578035, "common_window_cm": 14.5, "stock_0_30_kgm2": 3.0578035, "stock_0_30_is_lower_bound": true, "depth_covered_0_30_cm": 14.5}},
    {"type": "Feature", "geometry": {"type": "Point", "coordinates": [-87.65064, 56.0996361]}, "properties": {"core_id": "PM-02-A", "campaign": "PM_2024_peat", "year": 2024, "n_segments": 2, "core_length_cm": 20.7, "bd_min_gcm3": 0.0827, "bd_max_gcm3": 0.2662, "om_max_pct": 39.1, "n_flagged_segs": 2, "dist_from_fort_severn_km": 9.28471190687, "stock_common_kgm2": 2.7220705, "common_window_cm": 14.5, "stock_0_30_kgm2": 3.0833445, "stock_0_30_is_lower_bound": true, "depth_covered_0_30_cm": 20.7}},
    {"type": "Feature", "geometry": {"type": "Point", "coordinates": [-87.67839, 56.1103556]}, "properties": {"core_id": "PM-03-A", "campaign": "PM_2024_peat", "year": 2024, "n_segments": 4, "core_length_cm": 30.725, "bd_min_gcm3": 0.0501, "bd_max_gcm3": 0.2287, "om_max_pct": 73.1, "n_flagged_segs": 4, "dist_from_fort_severn_km": 10.7836455359, "stock_common_kgm2": 3.467879625, "common_window_cm": 14.5, "stock_0_30_kgm2": 10.01686145, "stock_0_30_is_lower_bound": false, "depth_covered_0_30_cm": 30}}
  ]
}
