{
"type": "FeatureCollection",
"name": "aoi",
"crs": { "type": "name", "properties": { "name": "urn:ogc:def:crs:OGC:1.3:CRS84" } },
"features": [
{ "type": "Feature", "properties": { }, "geometry": { "type": "Polygon", "coordinates": [ [ [ -87.3530159, 56.0020198 ], [ -87.4170242, 56.04344 ], [ -87.5551473, 56.1505492 ], [ -87.662950800000019, 56.3003758 ], [ -87.8819265, 56.4886964 ], [ -88.3603042, 56.5908558 ], [ -88.8858459, 56.4607868 ], [ -88.9633745, 56.31912410000001 ], [ -88.2323325, 55.9209957 ], [ -87.4979217, 55.6311017 ], [ -87.2621017, 55.9662738 ], [ -87.3530159, 56.0020198 ] ] ] } }
]
}
